IRIDIUM 921             
1 24873U 97034E   24215.61927694  .00036229  00000+0  82643-3 0  9992
2 24873  86.3776 265.0648 0005841  90.6823 269.5102 15.42726496482331
IRIDIUM 26              
1 24903U 97043A   24215.58383254  .00000727  00000+0  24127-3 0  9997
2 24903  86.3927 244.2831 0002507  90.1876 269.9608 14.36459973410998
IRIDIUM 22              
1 24907U 97043E   24215.60571263  .00000671  00000+0  22732-3 0  9991
2 24907  86.3929 247.5482 0002265  92.1614 267.9842 14.35345994411068
DUMMY MASS 1            
1 24925U 97048A   24215.71584470  .00000782  00000+0  85703-4 0  9993
2 24925  86.3333 282.4899 0006612 174.9481 185.1812 14.86314180458055
DUMMY MASS 2            
1 24926U 97048B   24215.62537402  .00000777  00000+0  85587-4 0  9991
2 24926  86.3335 284.0835 0006888 188.8507 171.2597 14.86071539457585
IRIDIUM 29              
1 24944U 97051A   24215.59403105  .00000677  00000+0  22742-3 0  9995
2 24944  86.3935 277.4475 0002132  99.1104 261.0334 14.35799764407541
IRIDIUM 33              
1 24946U 97051C   24215.59484560  .00000478  00000+0  16283-3 0  9993
2 24946  86.3850 276.6956 0009402  49.7436 310.4581 14.34435774407067
IRIDIUM 28              
1 24948U 97051E   24215.56713229  .00000688  00000+0  22689-3 0  9999
2 24948  86.3939 275.1544 0002616  86.9807 273.1690 14.36755147408089
